[{"OBJECT_NAME":"FENGYUN 1C DEB","OBJECT_ID":"1999-025EEU","EPOCH":"2026-04-05T10:31:51.602880","MEAN_MOTION":14.00826984,"ECCENTRICITY":0.00803418,"INCLINATION":99.0761,"RA_OF_ASC_NODE":157.2009,"ARG_OF_PERICENTER":35.6092,"MEAN_ANOMALY":325.0396,"EPHEMERIS_TYPE":0,"CLASSIFICATION_TYPE":"U","NORAD_CAT_ID":37060,"ELEMENT_SET_NO":999,"REV_AT_EPOCH":64298,"BSTAR":0.00048556656,"MEAN_MOTION_DOT":7.01e-6,"MEAN_MOTION_DDOT":0},{"OBJECT_NAME":"FENGYUN 1C DEB","OBJECT_ID":"1999-025EEV","EPOCH":"2026-04-26T08:39:28.000800","MEAN_MOTION":13.15149611,"ECCENTRICITY":0.0796832,"INCLINATION":98.0643,"RA_OF_ASC_NODE":155.0559,"ARG_OF_PERICENTER":31.833,"MEAN_ANOMALY":332.8497,"EPHEMERIS_TYPE":0,"CLASSIFICATION_TYPE":"U","NORAD_CAT_ID":37061,"ELEMENT_SET_NO":999,"REV_AT_EPOCH":9923,"BSTAR":0.0029417,"MEAN_MOTION_DOT":5.809e-5,"MEAN_MOTION_DDOT":0},{"OBJECT_NAME":"FENGYUN 1C DEB","OBJECT_ID":"1999-025EEY","EPOCH":"2026-04-23T16:35:36.827808","MEAN_MOTION":14.18016338,"ECCENTRICITY":0.01040558,"INCLINATION":98.9069,"RA_OF_ASC_NODE":271.027,"ARG_OF_PERICENTER":87.3816,"MEAN_ANOMALY":273.9265,"EPHEMERIS_TYPE":0,"CLASSIFICATION_TYPE":"U","NORAD_CAT_ID":37064,"ELEMENT_SET_NO":999,"REV_AT_EPOCH":83404,"BSTAR":0.0020247873,"MEAN_MOTION_DOT":4.334e-5,"MEAN_MOTION_DDOT":0},{"OBJECT_NAME":"FENGYUN 1C DEB","OBJECT_ID":"1999-025EEZ","EPOCH":"2026-04-26T08:07:21.114048","MEAN_MOTION":13.59716087,"ECCENTRICITY":0.0293276,"INCLINATION":103.2824,"RA_OF_ASC_NODE":343.558,"ARG_OF_PERICENTER":311.3425,"MEAN_ANOMALY":46.2804,"EPHEMERIS_TYPE":0,"CLASSIFICATION_TYPE":"U","NORAD_CAT_ID":37065,"ELEMENT_SET_NO":999,"REV_AT_EPOCH":24031,"BSTAR":0.0014059,"MEAN_MOTION_DOT":1.313e-5,"MEAN_MOTION_DDOT":0},{"OBJECT_NAME":"FENGYUN 1C DEB","OBJECT_ID":"1999-025EFB","EPOCH":"2026-04-21T03:12:39.728160","MEAN_MOTION":14.02473111,"ECCENTRICITY":0.01444781,"INCLINATION":99.535,"RA_OF_ASC_NODE":63.508,"ARG_OF_PERICENTER":118.9402,"MEAN_ANOMALY":242.6338,"EPHEMERIS_TYPE":0,"CLASSIFICATION_TYPE":"U","NORAD_CAT_ID":37067,"ELEMENT_SET_NO":999,"REV_AT_EPOCH":59221,"BSTAR":0.0019420108,"MEAN_MOTION_DOT":3.228e-5,"MEAN_MOTION_DDOT":0},{"OBJECT_NAME":"FENGYUN 1C DEB","OBJECT_ID":"1999-025EFD","EPOCH":"2026-04-22T11:50:27.434976","MEAN_MOTION":13.38631211,"ECCENTRICITY":0.04207971,"INCLINATION":95.8486,"RA_OF_ASC_NODE":32.8059,"ARG_OF_PERICENTER":264.3297,"MEAN_ANOMALY":90.973,"EPHEMERIS_TYPE":0,"CLASSIFICATION_TYPE":"U","NORAD_CAT_ID":37069,"ELEMENT_SET_NO":999,"REV_AT_EPOCH":89457,"BSTAR":0.0009879981,"MEAN_MOTION_DOT":8.6e-6,"MEAN_MOTION_DDOT":0},{"OBJECT_NAME":"FENGYUN 1C DEB","OBJECT_ID":"1999-025EFM","EPOCH":"2026-04-23T11:58:06.562848","MEAN_MOTION":14.41561388,"ECCENTRICITY":0.00943098,"INCLINATION":99.0193,"RA_OF_ASC_NODE":201.0268,"ARG_OF_PERICENTER":299.0546,"MEAN_ANOMALY":60.1219,"EPHEMERIS_TYPE":0,"CLASSIFICATION_TYPE":"U","NORAD_CAT_ID":37077,"ELEMENT_SET_NO":999,"REV_AT_EPOCH":86853,"BSTAR":0.00018186253,"MEAN_MOTION_DOT":5.7e-6,"MEAN_MOTION_DDOT":0},{"OBJECT_NAME":"FENGYUN 1C DEB","OBJECT_ID":"1999-025EFP","EPOCH":"2026-04-21T03:24:50.689440","MEAN_MOTION":14.65123616,"ECCENTRICITY":0.00120932,"INCLINATION":98.8629,"RA_OF_ASC_NODE":260.4726,"ARG_OF_PERICENTER":109.8666,"MEAN_ANOMALY":250.384,"EPHEMERIS_TYPE":0,"CLASSIFICATION_TYPE":"U","NORAD_CAT_ID":37079,"ELEMENT_SET_NO":999,"REV_AT_EPOCH":66507,"BSTAR":0.0025770702,"MEAN_MOTION_DOT":0.00013832,"MEAN_MOTION_DDOT":0},{"OBJECT_NAME":"FENGYUN 1C DEB","OBJECT_ID":"1999-025EFR","EPOCH":"2026-04-18T16:03:55.304640","MEAN_MOTION":14.18930571,"ECCENTRICITY":0.02533559,"INCLINATION":98.6911,"RA_OF_ASC_NODE":263.2098,"ARG_OF_PERICENTER":345.7637,"MEAN_ANOMALY":13.6489,"EPHEMERIS_TYPE":0,"CLASSIFICATION_TYPE":"U","NORAD_CAT_ID":37081,"ELEMENT_SET_NO":999,"REV_AT_EPOCH":60371,"BSTAR":0.0027562785,"MEAN_MOTION_DOT":7.868e-5,"MEAN_MOTION_DDOT":0},{"OBJECT_NAME":"FENGYUN 1C DEB","OBJECT_ID":"1999-025EFS","EPOCH":"2026-04-26T06:21:54.817920","MEAN_MOTION":13.63827726,"ECCENTRICITY":0.0401841,"INCLINATION":98.8385,"RA_OF_ASC_NODE":306.796,"ARG_OF_PERICENTER":144.1174,"MEAN_ANOMALY":218.7687,"EPHEMERIS_TYPE":0,"CLASSIFICATION_TYPE":"U","NORAD_CAT_ID":37400,"ELEMENT_SET_NO":999,"REV_AT_EPOCH":82027,"BSTAR":0.00052107,"MEAN_MOTION_DOT":6.79e-6,"MEAN_MOTION_DDOT":0},{"OBJECT_NAME":"FENGYUN 1C DEB","OBJECT_ID":"1999-025EFW","EPOCH":"2026-04-26T12:08:10.250880","MEAN_MOTION":14.32191538,"ECCENTRICITY":0.0045002,"INCLINATION":98.4551,"RA_OF_ASC_NODE":120.9062,"ARG_OF_PERICENTER":123.5055,"MEAN_ANOMALY":27.8151,"EPHEMERIS_TYPE":0,"CLASSIFICATION_TYPE":"U","NORAD_CAT_ID":37404,"ELEMENT_SET_NO":999,"REV_AT_EPOCH":84669,"BSTAR":0.00062869,"MEAN_MOTION_DOT":1.67e-5,"MEAN_MOTION_DDOT":0},{"OBJECT_NAME":"FENGYUN 1C DEB","OBJECT_ID":"1999-025EFY","EPOCH":"2026-04-22T02:23:16.411200","MEAN_MOTION":14.04703314,"ECCENTRICITY":0.01483043,"INCLINATION":98.4335,"RA_OF_ASC_NODE":340.1588,"ARG_OF_PERICENTER":257.4388,"MEAN_ANOMALY":260.3142,"EPHEMERIS_TYPE":0,"CLASSIFICATION_TYPE":"U","NORAD_CAT_ID":37406,"ELEMENT_SET_NO":999,"REV_AT_EPOCH":65062,"BSTAR":0.00064292673,"MEAN_MOTION_DOT":1.095e-5,"MEAN_MOTION_DDOT":0},{"OBJECT_NAME":"FENGYUN 1C DEB","OBJECT_ID":"1999-025EGH","EPOCH":"2026-04-18T12:42:18.681696","MEAN_MOTION":13.52175449,"ECCENTRICITY":0.02844842,"INCLINATION":98.9781,"RA_OF_ASC_NODE":209.5274,"ARG_OF_PERICENTER":218.5264,"MEAN_ANOMALY":139.5262,"EPHEMERIS_TYPE":0,"CLASSIFICATION_TYPE":"U","NORAD_CAT_ID":37415,"ELEMENT_SET_NO":999,"REV_AT_EPOCH":64035,"BSTAR":0.00040635857,"MEAN_MOTION_DOT":3.06e-6,"MEAN_MOTION_DDOT":0},{"OBJECT_NAME":"FENGYUN 1C DEB","OBJECT_ID":"1999-025EGK","EPOCH":"2026-04-21T04:45:12.334752","MEAN_MOTION":14.0754395,"ECCENTRICITY":0.00777469,"INCLINATION":98.8073,"RA_OF_ASC_NODE":105.6728,"ARG_OF_PERICENTER":256.0852,"MEAN_ANOMALY":103.1661,"EPHEMERIS_TYPE":0,"CLASSIFICATION_TYPE":"U","NORAD_CAT_ID":37417,"ELEMENT_SET_NO":999,"REV_AT_EPOCH":70171,"BSTAR":0.00028738861,"MEAN_MOTION_DOT":4.54e-6,"MEAN_MOTION_DDOT":0},{"OBJECT_NAME":"FENGYUN 1C DEB","OBJECT_ID":"1999-025EGL","EPOCH":"2026-04-23T09:05:36.461472","MEAN_MOTION":11.9525594,"ECCENTRICITY":0.1073899,"INCLINATION":98.6106,"RA_OF_ASC_NODE":326.6582,"ARG_OF_PERICENTER":59.4564,"MEAN_ANOMALY":310.8067,"EPHEMERIS_TYPE":0,"CLASSIFICATION_TYPE":"U","NORAD_CAT_ID":37418,"ELEMENT_SET_NO":999,"REV_AT_EPOCH":51057,"BSTAR":0.00013670598,"MEAN_MOTION_DOT":3.8e-7,"MEAN_MOTION_DDOT":0},{"OBJECT_NAME":"FENGYUN 1C DEB","OBJECT_ID":"1999-025EGN","EPOCH":"2026-04-16T05:04:30.408384","MEAN_MOTION":13.99886201,"ECCENTRICITY":0.00726973,"INCLINATION":98.8749,"RA_OF_ASC_NODE":97.3578,"ARG_OF_PERICENTER":290.2514,"MEAN_ANOMALY":69.0845,"EPHEMERIS_TYPE":0,"CLASSIFICATION_TYPE":"U","NORAD_CAT_ID":37420,"ELEMENT_SET_NO":999,"REV_AT_EPOCH":61506,"BSTAR":8.6830535e-5,"MEAN_MOTION_DOT":8.7e-7,"MEAN_MOTION_DDOT":0}]
