FENGYUN 1C DEB          
1 37060U 99025EEU 26095.43879170  .00000701  00000+0  48557-3 0  9991
2 37060  99.0761 157.2009 0080341  35.6092 325.0396 14.00826984642984
FENGYUN 1C DEB          
1 37061U 99025EEV 26116.36074075  .00005809  00000+0  29417-2 0  9996
2 37061  98.0643 155.0559 0796832  31.8330 332.8497 13.15149611 99233
FENGYUN 1C DEB          
1 37064U 99025EEY 26113.69139847  .00004334  00000+0  20248-2 0  9996
2 37064  98.9069 271.0270 0104055  87.3816 273.9265 14.18016338834048
FENGYUN 1C DEB          
1 37065U 99025EEZ 26116.33843882  .00001313  00000+0  14059-2 0  9999
2 37065 103.2824 343.5580 0293276 311.3425  46.2804 13.59716087240310
FENGYUN 1C DEB          
1 37067U 99025EFB 26111.13379315  .00003228  00000+0  19420-2 0  9993
2 37067  99.5350  63.5080 0144478 118.9402 242.6338 14.02473111592212
FENGYUN 1C DEB          
1 37069U 99025EFD 26112.49337309  .00000860  00000+0  98800-3 0  9991
2 37069  95.8486  32.8059 0420797 264.3297  90.9730 13.38631211894576
FENGYUN 1C DEB          
1 37077U 99025EFM 26113.49868707  .00000570  00000+0  18186-3 0  9999
2 37077  99.0193 201.0268 0094309 299.0546  60.1219 14.41561388868536
FENGYUN 1C DEB          
1 37079U 99025EFP 26111.14225335  .00013832  00000+0  25771-2 0  9997
2 37079  98.8629 260.4726 0012093 109.8666 250.3840 14.65123616665079
FENGYUN 1C DEB          
1 37081U 99025EFR 26108.66939010  .00007868  00000+0  27563-2 0  9998
2 37081  98.6911 263.2098 0253355 345.7637  13.6489 14.18930571603710
FENGYUN 1C DEB          
1 37400U 99025EFS 26116.26521780  .00000679  00000+0  52107-3 0  9995
2 37400  98.8385 306.7960 0401841 144.1174 218.7687 13.63827726820271
FENGYUN 1C DEB          
1 37404U 99025EFW 26116.50567420  .00001670  00000+0  62869-3 0  9995
2 37404  98.4551 120.9062 0045002 123.5055  27.8151 14.32191538846698
FENGYUN 1C DEB          
1 37406U 99025EFY 26112.09949550  .00001095  00000+0  64293-3 0  9999
2 37406  98.4335 340.1588 0148304 257.4388 260.3142 14.04703314650624
FENGYUN 1C DEB          
1 37415U 99025EGH 26108.52938289  .00000306  00000+0  40636-3 0  9998
2 37415  98.9781 209.5274 0284484 218.5264 139.5262 13.52175449640358
FENGYUN 1C DEB          
1 37417U 99025EGK 26111.19805943  .00000454  00000+0  28739-3 0  9991
2 37417  98.8073 105.6728 0077746 256.0852 103.1661 14.07543950701719
FENGYUN 1C DEB          
1 37418U 99025EGL 26113.37889423  .00000038  00000+0  13671-3 0  9996
2 37418  98.6106 326.6582 1073899  59.4564 310.8067 11.95255940510571
FENGYUN 1C DEB          
1 37420U 99025EGN 26106.21146306  .00000087  00000+0  86831-4 0  9993
2 37420  98.8749  97.3578 0072697 290.2514  69.0845 13.99886201615063
